IRIDIUM 112             
1 41925U 17003J   25297.73456281 -.00000685  00000+0 -25162-3 0  9992
2 41925  86.4032 186.6665 0002108  83.3687 276.7749 14.34215596459527
IRIDIUM 111             
1 41926U 17003K   25297.79164309  .00000338  00000+0  11372-3 0  9997
2 41926  86.4031 186.7082 0002200  80.8749 279.2696 14.34213012459514
IRIDIUM 113             
1 42803U 17039A   25297.84138008  .00000333  00000+0  11169-3 0  9993
2 42803  86.3968  60.5289 0002223  93.0604 267.0847 14.34218516437452
IRIDIUM 123             
1 42804U 17039B   25297.95262515  .00000296  00000+0  98770-4 0  9999
2 42804  86.3927  91.9792 0001956  81.6244 278.5174 14.34217639436230
IRIDIUM 120             
1 42805U 17039C   25297.83503622  .00000288  00000+0  95923-4 0  9992
2 42805  86.3958  60.3444 0001665  96.1128 264.0258 14.34218389437448
IRIDIUM 115             
1 42806U 17039D   25297.87903474  .00000619  00000+0  17805-3 0  9996
2 42806  86.4496  60.4225 0001793  78.3613 281.7789 14.43282530440323
IRIDIUM 118             
1 42807U 17039E   25297.91457144 -.00000021  00000+0 -14586-4 0  9993
2 42807  86.3924  91.9944 0002187  91.7842 268.3604 14.34217170436226
IRIDIUM 117             
1 42808U 17039F   25297.93359783  .00000237  00000+0  77719-4 0  9990
2 42808  86.3924  91.9461 0002085  84.5992 275.5442 14.34218409436253
